CCSDS_OMM_VERS = 2.0
CREATION_DATE  = 
ORIGINATOR     = 

OBJECT_NAME    = UNKNOWN
OBJECT_ID      = 
CENTER_NAME    = EARTH
REF_FRAME      = TEME
TIME_SYSTEM    = UTC
MEAN_ELEMENT_THEORY = SGP/SGP4

EPOCH          = 2026-02-23T03:44:05.144640
MEAN_MOTION    = 15.04671633
ECCENTRICITY   = .0006123
INCLINATION    = 86.6649
RA_OF_ASC_NODE = 124.3113
ARG_OF_PERICENTER = 245.2685
MEAN_ANOMALY   = 114.7914

EPHEMERIS_TYPE = 0
CLASSIFICATION_TYPE = U
NORAD_CAT_ID   = 82402
ELEMENT_SET_NO = 999
REV_AT_EPOCH   = 46535
BSTAR          = .46499E-3
MEAN_MOTION_DOT = .657E-4
MEAN_MOTION_DDOT = 0

CCSDS_OMM_VERS = 2.0
CREATION_DATE  = 
ORIGINATOR     = 

OBJECT_NAME    = UNKNOWN
OBJECT_ID      = 
CENTER_NAME    = EARTH
REF_FRAME      = TEME
TIME_SYSTEM    = UTC
MEAN_ELEMENT_THEORY = SGP/SGP4

EPOCH          = 2026-02-21T02:13:37.443936
MEAN_MOTION    = 14.58878349
ECCENTRICITY   = .005605
INCLINATION    = 74.0056
RA_OF_ASC_NODE = 206.3627
ARG_OF_PERICENTER = 352.3963
MEAN_ANOMALY   = 7.6345

EPHEMERIS_TYPE = 0
CLASSIFICATION_TYPE = U
NORAD_CAT_ID   = 82432
ELEMENT_SET_NO = 999
REV_AT_EPOCH   = 49316
BSTAR          = .3278E-3
MEAN_MOTION_DOT = .1538E-4
MEAN_MOTION_DDOT = 0

CCSDS_OMM_VERS = 2.0
CREATION_DATE  = 
ORIGINATOR     = 

OBJECT_NAME    = UNKNOWN
OBJECT_ID      = 
CENTER_NAME    = EARTH
REF_FRAME      = TEME
TIME_SYSTEM    = UTC
MEAN_ELEMENT_THEORY = SGP/SGP4

EPOCH          = 2026-02-23T07:52:50.186496
MEAN_MOTION    = 15.04889439
ECCENTRICITY   = .0007788
INCLINATION    = 85.8777
RA_OF_ASC_NODE = 160.5314
ARG_OF_PERICENTER = 14.0574
MEAN_ANOMALY   = 346.0875

EPHEMERIS_TYPE = 0
CLASSIFICATION_TYPE = U
NORAD_CAT_ID   = 82448
ELEMENT_SET_NO = 999
REV_AT_EPOCH   = 44795
BSTAR          = .5458E-3
MEAN_MOTION_DOT = .7755E-4
MEAN_MOTION_DDOT = 0

CCSDS_OMM_VERS = 2.0
CREATION_DATE  = 
ORIGINATOR     = 

OBJECT_NAME    = UNKNOWN
OBJECT_ID      = 
CENTER_NAME    = EARTH
REF_FRAME      = TEME
TIME_SYSTEM    = UTC
MEAN_ELEMENT_THEORY = SGP/SGP4

EPOCH          = 2026-02-22T19:39:11.226816
MEAN_MOTION    = 12.39708818
ECCENTRICITY   = .0093997
INCLINATION    = 102.1895
RA_OF_ASC_NODE = 15.1655
ARG_OF_PERICENTER = 74.0127
MEAN_ANOMALY   = 287.1266

EPHEMERIS_TYPE = 0
CLASSIFICATION_TYPE = U
NORAD_CAT_ID   = 82453
ELEMENT_SET_NO = 999
REV_AT_EPOCH   = 55499
BSTAR          = .47799E-3
MEAN_MOTION_DOT = .19E-6
MEAN_MOTION_DDOT = 0

CCSDS_OMM_VERS = 2.0
CREATION_DATE  = 
ORIGINATOR     = 

OBJECT_NAME    = UNKNOWN
OBJECT_ID      = 
CENTER_NAME    = EARTH
REF_FRAME      = TEME
TIME_SYSTEM    = UTC
MEAN_ELEMENT_THEORY = SGP/SGP4

EPOCH          = 2026-01-27T19:19:32.278080
MEAN_MOTION    = 14.23291843
ECCENTRICITY   = .0057759
INCLINATION    = 66.5137
RA_OF_ASC_NODE = 63.4517
ARG_OF_PERICENTER = 335.2450
MEAN_ANOMALY   = 24.5873

EPHEMERIS_TYPE = 0
CLASSIFICATION_TYPE = U
NORAD_CAT_ID   = 82458
ELEMENT_SET_NO = 999
REV_AT_EPOCH   = 61659
BSTAR          = .2137E-2
MEAN_MOTION_DOT = .4849E-4
MEAN_MOTION_DDOT = 0

CCSDS_OMM_VERS = 2.0
CREATION_DATE  = 
ORIGINATOR     = 

OBJECT_NAME    = UNKNOWN
OBJECT_ID      = 
CENTER_NAME    = EARTH
REF_FRAME      = TEME
TIME_SYSTEM    = UTC
MEAN_ELEMENT_THEORY = SGP/SGP4

EPOCH          = 2026-02-23T12:06:02.200032
MEAN_MOTION    = 13.55826039
ECCENTRICITY   = .0044607
INCLINATION    = 99.3516
RA_OF_ASC_NODE = 77.3756
ARG_OF_PERICENTER = 11.0877
MEAN_ANOMALY   = 349.1234

EPHEMERIS_TYPE = 0
CLASSIFICATION_TYPE = U
NORAD_CAT_ID   = 82484
ELEMENT_SET_NO = 999
REV_AT_EPOCH   = 60049
BSTAR          = .24602E-3
MEAN_MOTION_DOT = .131E-5
MEAN_MOTION_DDOT = 0

CCSDS_OMM_VERS = 2.0
CREATION_DATE  = 
ORIGINATOR     = 

OBJECT_NAME    = UNKNOWN
OBJECT_ID      = 
CENTER_NAME    = EARTH
REF_FRAME      = TEME
TIME_SYSTEM    = UTC
MEAN_ELEMENT_THEORY = SGP/SGP4

EPOCH          = 2026-02-23T11:56:45.160224
MEAN_MOTION    = 14.89174379
ECCENTRICITY   = .0004673
INCLINATION    = 74.0065
RA_OF_ASC_NODE = 236.5294
ARG_OF_PERICENTER = 5.2333
MEAN_ANOMALY   = 354.8895

EPHEMERIS_TYPE = 0
CLASSIFICATION_TYPE = U
NORAD_CAT_ID   = 82494
ELEMENT_SET_NO = 999
REV_AT_EPOCH   = 9578
BSTAR          = .23039E-2
MEAN_MOTION_DOT = .21809E-3
MEAN_MOTION_DDOT = 0

CCSDS_OMM_VERS = 2.0
CREATION_DATE  = 
ORIGINATOR     = 

OBJECT_NAME    = UNKNOWN
OBJECT_ID      = 
CENTER_NAME    = EARTH
REF_FRAME      = TEME
TIME_SYSTEM    = UTC
MEAN_ELEMENT_THEORY = SGP/SGP4

EPOCH          = 2026-02-19T20:30:56.539584
MEAN_MOTION    = 14.19103656
ECCENTRICITY   = .0117608
INCLINATION    = 70.9638
RA_OF_ASC_NODE = 217.5013
ARG_OF_PERICENTER = 9.2860
MEAN_ANOMALY   = 351.0399

EPHEMERIS_TYPE = 0
CLASSIFICATION_TYPE = U
NORAD_CAT_ID   = 82500
ELEMENT_SET_NO = 999
REV_AT_EPOCH   = 62875
BSTAR          = .14212E-2
MEAN_MOTION_DOT = .3138E-4
MEAN_MOTION_DDOT = 0

CCSDS_OMM_VERS = 2.0
CREATION_DATE  = 
ORIGINATOR     = 

OBJECT_NAME    = UNKNOWN
OBJECT_ID      = 
CENTER_NAME    = EARTH
REF_FRAME      = TEME
TIME_SYSTEM    = UTC
MEAN_ELEMENT_THEORY = SGP/SGP4

EPOCH          = 2026-02-20T10:09:45.241056
MEAN_MOTION    = 14.35943485
ECCENTRICITY   = .0132918
INCLINATION    = 73.2802
RA_OF_ASC_NODE = 48.0123
ARG_OF_PERICENTER = 175.0135
MEAN_ANOMALY   = 336.0881

EPHEMERIS_TYPE = 0
CLASSIFICATION_TYPE = U
NORAD_CAT_ID   = 82524
ELEMENT_SET_NO = 999
REV_AT_EPOCH   = 58703
BSTAR          = .85931E-3
MEAN_MOTION_DOT = .2726E-4
MEAN_MOTION_DDOT = 0

CCSDS_OMM_VERS = 2.0
CREATION_DATE  = 
ORIGINATOR     = 

OBJECT_NAME    = UNKNOWN
OBJECT_ID      = 
CENTER_NAME    = EARTH
REF_FRAME      = TEME
TIME_SYSTEM    = UTC
MEAN_ELEMENT_THEORY = SGP/SGP4

EPOCH          = 2026-02-23T17:23:55.484736
MEAN_MOTION    = 13.41184972
ECCENTRICITY   = .0238607
INCLINATION    = 99.7823
RA_OF_ASC_NODE = 140.8000
ARG_OF_PERICENTER = 63.0363
MEAN_ANOMALY   = 86.5513

EPHEMERIS_TYPE = 0
CLASSIFICATION_TYPE = U
NORAD_CAT_ID   = 82529
ELEMENT_SET_NO = 999
REV_AT_EPOCH   = 59952
BSTAR          = .59218E-3
MEAN_MOTION_DOT = .346E-5
MEAN_MOTION_DDOT = 0

CCSDS_OMM_VERS = 2.0
CREATION_DATE  = 
ORIGINATOR     = 

OBJECT_NAME    = UNKNOWN
OBJECT_ID      = 
CENTER_NAME    = EARTH
REF_FRAME      = TEME
TIME_SYSTEM    = UTC
MEAN_ELEMENT_THEORY = SGP/SGP4

EPOCH          = 2026-02-19T08:31:21.098784
MEAN_MOTION    = 13.90861878
ECCENTRICITY   = .0010447
INCLINATION    = 99.9951
RA_OF_ASC_NODE = 3.0120
ARG_OF_PERICENTER = 117.2301
MEAN_ANOMALY   = 35.3544

EPHEMERIS_TYPE = 0
CLASSIFICATION_TYPE = U
NORAD_CAT_ID   = 82560
ELEMENT_SET_NO = 999
REV_AT_EPOCH   = 62140
BSTAR          = .9218E-3
MEAN_MOTION_DOT = .1104E-4
MEAN_MOTION_DDOT = 0

CCSDS_OMM_VERS = 2.0
CREATION_DATE  = 
ORIGINATOR     = 

OBJECT_NAME    = UNKNOWN
OBJECT_ID      = 
CENTER_NAME    = EARTH
REF_FRAME      = TEME
TIME_SYSTEM    = UTC
MEAN_ELEMENT_THEORY = SGP/SGP4

EPOCH          = 2026-02-19T04:17:41.558208
MEAN_MOTION    = 14.36076363
ECCENTRICITY   = .0098992
INCLINATION    = 66.7733
RA_OF_ASC_NODE = 327.7369
ARG_OF_PERICENTER = 259.9727
MEAN_ANOMALY   = 99.0193

EPHEMERIS_TYPE = 0
CLASSIFICATION_TYPE = U
NORAD_CAT_ID   = 82597
ELEMENT_SET_NO = 999
REV_AT_EPOCH   = 63880
BSTAR          = .44081E-3
MEAN_MOTION_DOT = .1269E-4
MEAN_MOTION_DDOT = 0

