UNKNOWN                 
1 82402U          26054.15561510  .00006570  00000+0  46499-3 0  9999
2 82402  86.6649 124.3113 0006123 245.2685 114.7914 15.04671633465352
UNKNOWN                 
1 82432U          26052.09279449  .00001538  00000+0  32780-3 0  9997
2 82432  74.0056 206.3627 0056050 352.3963   7.6345 14.58878349493161
UNKNOWN                 
1 82448U          26054.32835864  .00007755  00000+0  54580-3 0  9990
2 82448  85.8777 160.5314 0007788  14.0574 346.0875 15.04889439447954
UNKNOWN                 
1 82453U          26053.81887994  .00000019  00000+0  47799-3 0  9990
2 82453 102.1895  15.1655 0093997  74.0127 287.1266 12.39708818554992
UNKNOWN                 
1 82458U          26027.80523470  .00004849  00000+0  21370-2 0  9992
2 82458  66.5137  63.4517 0057759 335.2450  24.5873 14.23291843616591
UNKNOWN                 
1 82484U          26054.50419213  .00000131  00000+0  24602-3 0  9999
2 82484  99.3516  77.3756 0044607  11.0877 349.1234 13.55826039600498
UNKNOWN                 
1 82494U          26054.49774491  .00021809  00000+0  23039-2 0  9997
2 82494  74.0065 236.5294 0004673   5.2333 354.8895 14.89174379 95782
UNKNOWN                 
1 82500U          26050.85482106  .00003138  00000+0  14212-2 0  9998
2 82500  70.9638 217.5013 0117608   9.2860 351.0399 14.19103656628751
UNKNOWN                 
1 82524U          26051.42344029  .00002726  00000+0  85931-3 0  9998
2 82524  73.2802  48.0123 0132918 175.0135 336.0881 14.35943485587037
UNKNOWN                 
1 82529U          26054.72494774  .00000346  00000+0  59218-3 0  9997
2 82529  99.7823 140.8000 0238607  63.0363  86.5513 13.41184972599524
UNKNOWN                 
1 82560U          26050.35510531  .00001104  00000+0  92180-3 0  9995
2 82560  99.9951   3.0120 0010447 117.2301  35.3544 13.90861878621400
UNKNOWN                 
1 82597U          26050.17895322  .00001269  00000+0  44081-3 0  9998
2 82597  66.7733 327.7369 0098992 259.9727  99.0193 14.36076363638805
